[{"OBJECT_NAME":"SL-8 R/B","OBJECT_ID":"1990-078B","EPOCH":"2026-03-05T13:02:51.125856","MEAN_MOTION":14.88899069,"ECCENTRICITY":0.03631482,"INCLINATION":82.8998,"RA_OF_ASC_NODE":255.0401,"ARG_OF_PERICENTER":27.9255,"MEAN_ANOMALY":334.0934,"EPHEMERIS_TYPE":0,"CLASSIFICATION_TYPE":"U","NORAD_CAT_ID":20775,"ELEMENT_SET_NO":999,"REV_AT_EPOCH":80868,"BSTAR":0.00054091247,"MEAN_MOTION_DOT":0.00018379,"MEAN_MOTION_DDOT":0},{"OBJECT_NAME":"SL-8 R/B","OBJECT_ID":"1991-006B","EPOCH":"2026-03-05T13:08:25.673568","MEAN_MOTION":13.7749368,"ECCENTRICITY":0.00232995,"INCLINATION":82.9465,"RA_OF_ASC_NODE":173.125,"ARG_OF_PERICENTER":49.522,"MEAN_ANOMALY":326.189,"EPHEMERIS_TYPE":0,"CLASSIFICATION_TYPE":"U","NORAD_CAT_ID":21088,"ELEMENT_SET_NO":999,"REV_AT_EPOCH":76350,"BSTAR":6.7369167e-5,"MEAN_MOTION_DOT":8.3e-7,"MEAN_MOTION_DDOT":0},{"OBJECT_NAME":"OKEAN-3","OBJECT_ID":"1991-039A","EPOCH":"2026-03-05T14:56:44.700576","MEAN_MOTION":15.04769051,"ECCENTRICITY":0.00142008,"INCLINATION":82.5194,"RA_OF_ASC_NODE":340.7828,"ARG_OF_PERICENTER":353.2959,"MEAN_ANOMALY":6.8075,"EPHEMERIS_TYPE":0,"CLASSIFICATION_TYPE":"U","NORAD_CAT_ID":21397,"ELEMENT_SET_NO":999,"REV_AT_EPOCH":86442,"BSTAR":0.00031523248,"MEAN_MOTION_DOT":4.48e-5,"MEAN_MOTION_DDOT":0},{"OBJECT_NAME":"COSMOS 2151","OBJECT_ID":"1991-042A","EPOCH":"2026-03-05T14:44:43.718496","MEAN_MOTION":15.00087077,"ECCENTRICITY":0.00140536,"INCLINATION":82.4928,"RA_OF_ASC_NODE":87.6083,"ARG_OF_PERICENTER":75.8585,"MEAN_ANOMALY":284.42,"EPHEMERIS_TYPE":0,"CLASSIFICATION_TYPE":"U","NORAD_CAT_ID":21422,"ELEMENT_SET_NO":999,"REV_AT_EPOCH":86258,"BSTAR":0.0002198947,"MEAN_MOTION_DOT":2.771e-5,"MEAN_MOTION_DDOT":0},{"OBJECT_NAME":"SL-14 R/B","OBJECT_ID":"1991-042B","EPOCH":"2026-03-05T15:19:40.326816","MEAN_MOTION":14.81824702,"ECCENTRICITY":0.00156496,"INCLINATION":82.4915,"RA_OF_ASC_NODE":223.9811,"ARG_OF_PERICENTER":253.0258,"MEAN_ANOMALY":106.9241,"EPHEMERIS_TYPE":0,"CLASSIFICATION_TYPE":"U","NORAD_CAT_ID":21423,"ELEMENT_SET_NO":999,"REV_AT_EPOCH":85247,"BSTAR":8.389894e-5,"MEAN_MOTION_DOT":6.87e-6,"MEAN_MOTION_DDOT":0},{"OBJECT_NAME":"ERS-1","OBJECT_ID":"1991-050A","EPOCH":"2026-03-05T14:18:29.675520","MEAN_MOTION":14.3944565,"ECCENTRICITY":0.00313963,"INCLINATION":98.7885,"RA_OF_ASC_NODE":82.7279,"ARG_OF_PERICENTER":212.7599,"MEAN_ANOMALY":147.1642,"EPHEMERIS_TYPE":0,"CLASSIFICATION_TYPE":"U","NORAD_CAT_ID":21574,"ELEMENT_SET_NO":999,"REV_AT_EPOCH":81514,"BSTAR":0.00015171324,"MEAN_MOTION_DOT":4.29e-6,"MEAN_MOTION_DDOT":0},{"OBJECT_NAME":"ARIANE 40 R/B","OBJECT_ID":"1991-050F","EPOCH":"2026-03-05T14:06:01.848096","MEAN_MOTION":14.42890334,"ECCENTRICITY":0.00043561,"INCLINATION":98.202,"RA_OF_ASC_NODE":116.9777,"ARG_OF_PERICENTER":90.253,"MEAN_ANOMALY":269.916,"EPHEMERIS_TYPE":0,"CLASSIFICATION_TYPE":"U","NORAD_CAT_ID":21610,"ELEMENT_SET_NO":999,"REV_AT_EPOCH":81840,"BSTAR":0.00014202685,"MEAN_MOTION_DOT":4.33e-6,"MEAN_MOTION_DDOT":0},{"OBJECT_NAME":"INTERCOSMOS 25","OBJECT_ID":"1991-086A","EPOCH":"2026-03-05T14:42:03.519936","MEAN_MOTION":12.11986742,"ECCENTRICITY":0.14870093,"INCLINATION":82.6058,"RA_OF_ASC_NODE":312.4728,"ARG_OF_PERICENTER":125.7145,"MEAN_ANOMALY":249.1633,"EPHEMERIS_TYPE":0,"CLASSIFICATION_TYPE":"U","NORAD_CAT_ID":21819,"ELEMENT_SET_NO":999,"REV_AT_EPOCH":49619,"BSTAR":0.00031479037,"MEAN_MOTION_DOT":1.641e-5,"MEAN_MOTION_DDOT":0},{"OBJECT_NAME":"SL-8 R/B","OBJECT_ID":"1992-008B","EPOCH":"2026-03-05T13:48:43.287264","MEAN_MOTION":13.75969741,"ECCENTRICITY":0.0035345,"INCLINATION":82.9226,"RA_OF_ASC_NODE":270.8396,"ARG_OF_PERICENTER":144.5327,"MEAN_ANOMALY":269.481,"EPHEMERIS_TYPE":0,"CLASSIFICATION_TYPE":"U","NORAD_CAT_ID":21876,"ELEMENT_SET_NO":999,"REV_AT_EPOCH":70885,"BSTAR":-1.3684842e-5,"MEAN_MOTION_DOT":2.0e-8,"MEAN_MOTION_DDOT":0},{"OBJECT_NAME":"SL-8 R/B","OBJECT_ID":"1992-020B","EPOCH":"2026-03-05T15:05:51.808704","MEAN_MOTION":13.75548989,"ECCENTRICITY":0.00278054,"INCLINATION":82.9341,"RA_OF_ASC_NODE":156.7757,"ARG_OF_PERICENTER":310.6287,"MEAN_ANOMALY":161.2071,"EPHEMERIS_TYPE":0,"CLASSIFICATION_TYPE":"U","NORAD_CAT_ID":21938,"ELEMENT_SET_NO":999,"REV_AT_EPOCH":70057,"BSTAR":9.6866852e-5,"MEAN_MOTION_DOT":1.08e-6,"MEAN_MOTION_DDOT":0},{"OBJECT_NAME":"USA 81","OBJECT_ID":"1992-023A","EPOCH":"2026-03-05T14:34:09.642720","MEAN_MOTION":14.3236646,"ECCENTRICITY":0.00025751,"INCLINATION":85.0092,"RA_OF_ASC_NODE":133.7963,"ARG_OF_PERICENTER":80.7557,"MEAN_ANOMALY":279.3927,"EPHEMERIS_TYPE":0,"CLASSIFICATION_TYPE":"U","NORAD_CAT_ID":21949,"ELEMENT_SET_NO":999,"REV_AT_EPOCH":9420,"BSTAR":8.2903195e-5,"MEAN_MOTION_DOT":2.44e-6,"MEAN_MOTION_DDOT":0},{"OBJECT_NAME":"COSMOS 2219","OBJECT_ID":"1992-076A","EPOCH":"2026-03-05T08:20:20.103360","MEAN_MOTION":14.14090569,"ECCENTRICITY":0.00192495,"INCLINATION":71.0624,"RA_OF_ASC_NODE":27.144,"ARG_OF_PERICENTER":212.8488,"MEAN_ANOMALY":147.144,"EPHEMERIS_TYPE":0,"CLASSIFICATION_TYPE":"U","NORAD_CAT_ID":22219,"ELEMENT_SET_NO":999,"REV_AT_EPOCH":71776,"BSTAR":0.00017248829,"MEAN_MOTION_DOT":2.82e-6,"MEAN_MOTION_DDOT":0},{"OBJECT_NAME":"SL-16 R/B","OBJECT_ID":"1992-076B","EPOCH":"2026-03-05T14:32:48.768000","MEAN_MOTION":14.16860265,"ECCENTRICITY":0.00105144,"INCLINATION":71.0002,"RA_OF_ASC_NODE":196.9745,"ARG_OF_PERICENTER":103.9275,"MEAN_ANOMALY":339.2836,"EPHEMERIS_TYPE":0,"CLASSIFICATION_TYPE":"U","NORAD_CAT_ID":22220,"ELEMENT_SET_NO":999,"REV_AT_EPOCH":72125,"BSTAR":3.134119e-6,"MEAN_MOTION_DOT":-4.2e-7,"MEAN_MOTION_DDOT":0},{"OBJECT_NAME":"COSMOS 2221","OBJECT_ID":"1992-080A","EPOCH":"2026-03-05T14:59:31.850016","MEAN_MOTION":14.96183193,"ECCENTRICITY":0.00136692,"INCLINATION":82.5012,"RA_OF_ASC_NODE":282.9757,"ARG_OF_PERICENTER":201.2349,"MEAN_ANOMALY":158.8308,"EPHEMERIS_TYPE":0,"CLASSIFICATION_TYPE":"U","NORAD_CAT_ID":22236,"ELEMENT_SET_NO":999,"REV_AT_EPOCH":78018,"BSTAR":0.00023396868,"MEAN_MOTION_DOT":2.665e-5,"MEAN_MOTION_DDOT":0},{"OBJECT_NAME":"SL-16 R/B","OBJECT_ID":"1992-093B","EPOCH":"2026-03-05T13:40:44.669280","MEAN_MOTION":14.15449187,"ECCENTRICITY":0.00063503,"INCLINATION":71.0239,"RA_OF_ASC_NODE":12.9132,"ARG_OF_PERICENTER":298.0914,"MEAN_ANOMALY":61.9567,"EPHEMERIS_TYPE":0,"CLASSIFICATION_TYPE":"U","NORAD_CAT_ID":22285,"ELEMENT_SET_NO":999,"REV_AT_EPOCH":71257,"BSTAR":-6.3522492e-5,"MEAN_MOTION_DOT":-1.72e-6,"MEAN_MOTION_DDOT":0},{"OBJECT_NAME":"COSMOS 2228","OBJECT_ID":"1992-094A","EPOCH":"2026-03-05T13:50:43.478304","MEAN_MOTION":14.97166508,"ECCENTRICITY":0.0017031,"INCLINATION":82.5148,"RA_OF_ASC_NODE":241.2491,"ARG_OF_PERICENTER":319.3758,"MEAN_ANOMALY":40.6192,"EPHEMERIS_TYPE":0,"CLASSIFICATION_TYPE":"U","NORAD_CAT_ID":22286,"ELEMENT_SET_NO":999,"REV_AT_EPOCH":77544,"BSTAR":0.00028770997,"MEAN_MOTION_DOT":3.358e-5,"MEAN_MOTION_DDOT":0},{"OBJECT_NAME":"SL-16 R/B","OBJECT_ID":"1993-016B","EPOCH":"2026-03-05T14:38:22.602912","MEAN_MOTION":14.15306693,"ECCENTRICITY":0.00115037,"INCLINATION":71.0063,"RA_OF_ASC_NODE":223.7495,"ARG_OF_PERICENTER":319.9714,"MEAN_ANOMALY":40.056,"EPHEMERIS_TYPE":0,"CLASSIFICATION_TYPE":"U","NORAD_CAT_ID":22566,"ELEMENT_SET_NO":999,"REV_AT_EPOCH":70159,"BSTAR":0.00017078491,"MEAN_MOTION_DOT":2.85e-6,"MEAN_MOTION_DDOT":0}]
