SL-8 R/B                
1 20775U 90078B   26064.54364729  .00018379  00000+0  54091-3 0  9992
2 20775  82.8998 255.0401 0363148  27.9255 334.0934 14.88899069808687
SL-8 R/B                
1 21088U 91006B   26064.54751937  .00000083  00000+0  67369-4 0  9999
2 21088  82.9465 173.1250 0023299  49.5220 326.1890 13.77493680763509
OKEAN-3                 
1 21397U 91039A   26064.62273959  .00004480  00000+0  31523-3 0  9997
2 21397  82.5194 340.7828 0014200 353.2959   6.8075 15.04769051864426
COSMOS 2151             
1 21422U 91042A   26064.61439489  .00002771  00000+0  21989-3 0  9997
2 21422  82.4928  87.6083 0014053  75.8585 284.4200 15.00087077862583
SL-14 R/B               
1 21423U 91042B   26064.63866119  .00000687  00000+0  83899-4 0  9997
2 21423  82.4915 223.9811 0015649 253.0258 106.9241 14.81824702852475
ERS-1                   
1 21574U 91050A   26064.59617680  .00000429  00000+0  15171-3 0  9996
2 21574  98.7885  82.7279 0031396 212.7599 147.1642 14.39445650815143
ARIANE 40 R/B           
1 21610U 91050F   26064.58752139  .00000433  00000+0  14203-3 0  9995
2 21610  98.2020 116.9777 0004356  90.2530 269.9160 14.42890334818400
INTERCOSMOS 25          
1 21819U 91086A   26064.61254074  .00001641  00000+0  31479-3 0  9990
2 21819  82.6058 312.4728 1487009 125.7145 249.1633 12.11986742496191
SL-8 R/B                
1 21876U 92008B   26064.57550101  .00000002  00000+0 -13685-4 0  9994
2 21876  82.9226 270.8396 0035345 144.5327 269.4810 13.75969741708856
SL-8 R/B                
1 21938U 92020B   26064.62907186  .00000108  00000+0  96867-4 0  9991
2 21938  82.9341 156.7757 0027805 310.6287 161.2071 13.75548989700575
USA 81                  
1 21949U 92023A   26064.60705605  .00000244  00000+0  82903-4 0  9993
2 21949  85.0092 133.7963 0002575  80.7557 279.3927 14.32366460 94203
COSMOS 2219             
1 22219U 92076A   26064.34745490  .00000282  00000+0  17249-3 0  9991
2 22219  71.0624  27.1440 0019249 212.8488 147.1440 14.14090569717762
SL-16 R/B               
1 22220U 92076B   26064.60612000 -.00000042  00000+0  31341-5 0  9998
2 22220  71.0002 196.9745 0010514 103.9275 339.2836 14.16860265721259
COSMOS 2221             
1 22236U 92080A   26064.62467419  .00002665  00000+0  23397-3 0  9996
2 22236  82.5012 282.9757 0013669 201.2349 158.8308 14.96183193780183
SL-16 R/B               
1 22285U 92093B   26064.56996145 -.00000172  00000+0 -63522-4 0  9998
2 22285  71.0239  12.9132 0006350 298.0914  61.9567 14.15449187712578
COSMOS 2228             
1 22286U 92094A   26064.57689211  .00003358  00000+0  28771-3 0  9997
2 22286  82.5148 241.2491 0017031 319.3758  40.6192 14.97166508775447
SL-16 R/B               
1 22566U 93016B   26064.60998383  .00000285  00000+0  17078-3 0  9994
2 22566  71.0063 223.7495 0011503 319.9714  40.0560 14.15306693701591
